ALOS-2                  
1 39766U 14029A   26186.06187343  .00000552  00000+0  80746-4 0  9992
2 39766  97.9228 282.9699 0001665  89.5658 270.5745 14.79477316654222
KAZEOSAT 2              
1 40010U 14033A   26186.61928257  .00000325  00000+0  43461-4 0  9990
2 40010  97.5395  25.2561 0007065 257.9340 102.1084 14.85490550651698
HODOYOSHI-4             
1 40011U 14033B   26186.65933975  .00001894  00000+0  21033-3 0  9990
2 40011  97.5454  10.5901 0022173 243.0017 116.8936 14.88172351651556
DEIMOS-2                
1 40013U 14033D   26186.60464869  .00003904  00000+0  37338-3 0  9997
2 40013  97.5801  60.4440 0001110  85.6235 274.5112 14.93783335640479
HODOYOSHI-3             
1 40015U 14033F   26186.03620598  .00001276  00000+0  15300-3 0  9994
2 40015  97.6436 348.3602 0031456 297.0004  62.8001 14.85424745650275
SPOT 7                  
1 40053U 14034A   26186.60503013  .00000803  00000+0  17300-3 0  9999
2 40053  98.0615 248.6220 0001491  96.9514 263.1857 14.60976237639821
SKYSAT-B                
1 40072U 14037D   26185.87723848  .00001730  00000+0  19485-3 0  9997
2 40072  98.3847 145.8518 0004728 208.3182 151.7776 14.88075391648593
WORLDVIEW-3 (WV-3)      
1 40115U 14048A   26186.42725921  .00001170  00000+0  14322-3 0  9996
2 40115  97.8560 261.0080 0000507 167.0322 193.0906 14.85054576644612
GAOFEN-2                
1 40118U 14049A   26186.62220696  .00001595  00000+0  21313-3 0  9990
2 40118  98.0096 250.8117 0007497 162.5796 197.5675 14.80923338641962
YAOGAN-21               
1 40143U 14053A   26186.64810618  .00012453  00000+0  47642-3 0  9992
2 40143  97.1459 226.0931 0008765  39.0467 321.1404 15.26672719657770
YAOGAN-22               
1 40275U 14063A   26186.36188892 -.00000015  00000+0  83731-4 0  9992
2 40275 100.7749 337.9386 0006711 145.8091 214.3453 13.15531440562204
ASNARO                  
1 40298U 14070A   26186.59740152  .00016561  00000+0  77625-3 0  9999
2 40298  97.3445 262.2159 0006778 113.1148 247.0802 15.19740593646802
YAOGAN-24               
1 40310U 14072A   26186.65502865  .00000783  00000+0  12101-3 0  9997
2 40310  98.1518 324.1498 0013817 200.6905 159.3746 14.76109553626443
CBERS 4                 
1 40336U 14079A   26186.64759924  .00000197  00000+0  83267-4 0  9992
2 40336  98.3516 242.8996 0001205  50.4760 309.6533 14.35514734606604
YAOGAN-26               
1 40362U 14088A   26186.62462479  .00013164  00000+0  25225-3 0  9992
2 40362  97.0645 186.4110 0003486  23.0954 337.0454 15.48136087640552
SMAP                    
1 40376U 15003A   26186.47303409  .00000569  00000+0  11922-3 0  9999
2 40376  98.1278 193.3086 0001517  98.0099 262.1275 14.63383753610292
KOMPSAT-3A              
1 40536U 15014A   26186.58851391  .00034117  00000+0  47371-3 0  9992
2 40536  97.6892 179.3081 0057025 109.3248 251.4184 15.54994163624673
SENTINEL-2A             
1 40697U 15028A   26186.60629553  .00000565  00000+0  23219-3 0  9996
2 40697  98.5677 261.1967 0001224  94.8488 265.2834 14.30822338576363
GAOFEN-8                
1 40701U 15030A   26186.59581965  .00034258  00000+0  68468-3 0  9998
2 40701  97.6900  21.0783 0009808 124.9081 235.3091 15.46683414614293
CARBONITE 1 (CBNT-1)    
1 40718U 15032D   26186.66229087  .00003523  00000+0  43221-3 0  9991
2 40718  97.6522   3.9560 0013158 229.9110 130.0951 14.83651306592088
YAOGAN-27               
1 40878U 15040A   26186.65365884 -.00000447  00000+0 -10665-2 0  9991
2 40878 100.1163 172.2356 0008236 166.5796 193.5539 13.16069036520092
GAOFEN-9 01             
1 40894U 15047A   26186.61874021  .00001142  00000+0  14603-3 0  9998
2 40894  97.6267 221.4754 0028848  80.3612 280.0859 14.82921761582928
YAOGAN-28               
1 41026U 15064A   26186.66478429  .00007892  00000+0  29388-3 0  9996
2 41026  97.3101 324.5547 0011915 122.5308 237.7085 15.27670518593500
YAOGAN-29               
1 41038U 15069A   26186.59650684  .00000637  00000+0  84812-4 0  9995
2 41038  98.0017 215.2579 0001533  26.7955 333.3338 14.83102379573357
KENT RIDGE 1            
1 41167U 15077B   26186.17142878  .00005171  00000+0  18027-3 0  9994
2 41167  14.9788 132.2238 0008161 133.4510 226.6491 15.23242475583845
GAOFEN-4                
1 41194U 15083A   26186.65968439 -.00000321  00000+0  00000+0 0  9994
2 41194   0.4025  83.8385 0004108 116.0145  66.9963  1.00272654 38713
JASON-3                 
1 41240U 16002A   26186.56587421 -.00000009  00000+0  20853-3 0  9991
2 41240  66.0418  87.1971 0008293 271.4107  88.5961 12.87628627489619
SENTINEL-3A             
1 41335U 16011A   26186.38020817  .00000159  00000+0  83580-4 0  9999
2 41335  98.6241 253.5019 0001424  93.3626 266.7718 14.26738070540658
ZIYUAN 3-02 (ZY 3-02)   
1 41556U 16033A   26186.60705344  .00006617  00000+0  29762-3 0  9994
2 41556  97.3826 262.0272 0013089 219.5576 140.4706 15.21368860560783
CARTOSAT-2C             
1 41599U 16040A   26186.63430935  .00010609  00000+0  50598-3 0  9990
2 41599  97.4469 246.3583 0010087  73.3027 286.9314 15.19222933556510
