OBJECT_NAME,OBJECT_ID,EPOCH,MEAN_MOTION,ECCENTRICITY,INCLINATION,RA_OF_ASC_NODE,ARG_OF_PERICENTER,MEAN_ANOMALY,EPHEMERIS_TYPE,CLASSIFICATION_TYPE,NORAD_CAT_ID,ELEMENT_SET_NO,REV_AT_EPOCH,BSTAR,MEAN_MOTION_DOT,MEAN_MOTION_DDOT
ALOS-2,2014-029A,2026-07-05T01:29:05.864352,14.79477316,.0001666,97.9228,282.9699,89.5658,270.5745,0,U,39766,999,65422,.80746E-4,.552E-5,0
KAZEOSAT 2,2014-033A,2026-07-05T14:51:46.014048,14.85490550,.00070659,97.5395,25.2561,257.9340,102.1084,0,U,40010,999,65169,.43460716E-4,.325E-5,0
HODOYOSHI-4,2014-033B,2026-07-05T15:49:26.954400,14.88172351,.00221732,97.5454,10.5901,243.0017,116.8936,0,U,40011,999,65155,.21033488E-3,.1894E-4,0
DEIMOS-2,2014-033D,2026-07-05T14:30:41.646816,14.93783335,.00011102,97.5801,60.4440,85.6235,274.5112,0,U,40013,999,64047,.37337799E-3,.3904E-4,0
HODOYOSHI-3,2014-033F,2026-07-05T00:52:08.195808,14.85424745,.0031457,97.6436,348.3602,297.0004,62.8001,0,U,40015,999,65027,.153E-3,.1276E-4,0
SPOT 7,2014-034A,2026-07-05T14:31:14.603232,14.60976237,.00014916,98.0615,248.6220,96.9514,263.1857,0,U,40053,999,63982,.17299629E-3,.803E-5,0
SKYSAT-B,2014-037D,2026-07-04T21:03:13.404672,14.88075391,.00047281,98.3847,145.8518,208.3182,151.7776,0,U,40072,999,64859,.19484651E-3,.173E-4,0
WORLDVIEW-3 (WV-3),2014-048A,2026-07-05T10:15:15.194880,14.85054576,.0000508,97.8560,261.0080,167.0322,193.0906,0,U,40115,999,64461,.14322E-3,.117E-4,0
GAOFEN-2,2014-049A,2026-07-05T14:55:58.681344,14.80923338,.00074975,98.0096,250.8117,162.5796,197.5675,0,U,40118,999,64196,.21312755E-3,.1595E-4,0
YAOGAN-21,2014-053A,2026-07-05T15:33:16.373952,15.26672719,.00087656,97.1459,226.0931,39.0467,321.1404,0,U,40143,999,65777,.47641688E-3,.12453E-3,0
YAOGAN-22,2014-063A,2026-07-05T08:41:07.201824,13.15531440,.0006712,100.7749,337.9386,145.8091,214.3453,0,U,40275,999,56220,.83731E-4,-.15E-6,0
ASNARO,2014-070A,2026-07-05T14:20:15.491328,15.19740593,.00067781,97.3445,262.2159,113.1148,247.0802,0,U,40298,999,64680,.77624694E-3,.16561E-3,0
YAOGAN-24,2014-072A,2026-07-05T15:43:14.475360,14.76109553,.00138179,98.1518,324.1498,200.6905,159.3746,0,U,40310,999,62644,.12100613E-3,.783E-5,0
CBERS 4,2014-079A,2026-07-05T15:32:32.574336,14.35514734,.00012054,98.3516,242.8996,50.4760,309.6533,0,U,40336,999,60660,.83266582E-4,.197E-5,0
YAOGAN-26,2014-088A,2026-07-05T14:59:27.581856,15.48136087,.00034864,97.0645,186.4110,23.0954,337.0454,0,U,40362,999,64055,.25224651E-3,.13164E-3,0
SMAP,2015-003A,2026-07-05T11:21:10.145376,14.63383753,.0001517,98.1278,193.3086,98.0099,262.1275,0,U,40376,999,61029,.11922E-3,.569E-5,0
KOMPSAT-3A,2015-014A,2026-07-05T14:07:27.601824,15.54994163,.00570257,97.6892,179.3081,109.3248,251.4184,0,U,40536,999,62467,.47370905E-3,.34117E-3,0
SENTINEL-2A,2015-028A,2026-07-05T14:33:03.933792,14.30822338,.00012246,98.5677,261.1967,94.8488,265.2834,0,U,40697,999,57636,.2321893E-3,.565E-5,0
GAOFEN-8,2015-030A,2026-07-05T14:17:58.817760,15.46683414,.00098084,97.6900,21.0783,124.9081,235.3091,0,U,40701,999,61429,.68468048E-3,.34258E-3,0
CARBONITE 1 (CBNT-1),2015-032D,2026-07-05T15:53:41.931168,14.83651306,.00131586,97.6522,3.9560,229.9110,130.0951,0,U,40718,999,59208,.4322118E-3,.3523E-4,0
YAOGAN-27,2015-040A,2026-07-05T15:41:16.123776,13.16069036,.00082367,100.1163,172.2356,166.5796,193.5539,0,U,40878,999,52009,-.10664743E-2,-.447E-5,0
GAOFEN-9 01,2015-047A,2026-07-05T14:50:59.154144,14.82921761,.00288484,97.6267,221.4754,80.3612,280.0859,0,U,40894,999,58292,.14602566E-3,.1142E-4,0
YAOGAN-28,2015-064A,2026-07-05T15:57:17.362656,15.27670518,.00119151,97.3101,324.5547,122.5308,237.7085,0,U,41026,999,59350,.29388142E-3,.7892E-4,0
YAOGAN-29,2015-069A,2026-07-05T14:18:58.190976,14.83102379,.00015336,98.0017,215.2579,26.7955,333.3338,0,U,41038,999,57335,.84812226E-4,.637E-5,0
KENT RIDGE 1,2015-077B,2026-07-05T04:06:51.445728,15.23242474,.0008162,14.9788,132.2238,133.4510,226.6491,0,U,41167,999,58384,.18027E-3,.5171E-4,0
GAOFEN-4,2015-083A,2026-07-05T15:49:56.731296,1.00272654,.00041087,0.4025,83.8385,116.0145,66.9963,0,U,41194,999,3871,0,-.321E-5,0
JASON-3,2016-002A,2026-07-05T13:34:51.531744,12.87628627,.00082938,66.0418,87.1971,271.4107,88.5961,0,U,41240,999,48961,.20852894E-3,-.9E-7,0
SENTINEL-3A,2016-011A,2026-07-05T09:07:29.985024,14.26738070,.0001424,98.6241,253.5019,93.3626,266.7718,0,U,41335,999,54065,.8358E-4,.159E-5,0
ZIYUAN 3-02 (ZY 3-02),2016-033A,2026-07-05T14:34:09.417216,15.21368860,.00130891,97.3826,262.0272,219.5576,140.4706,0,U,41556,999,56078,.29761617E-3,.6617E-4,0
CARTOSAT-2C,2016-040A,2026-07-05T15:13:24.327840,15.19222933,.00100873,97.4469,246.3583,73.3027,286.9314,0,U,41599,999,55651,.50598081E-3,.10609E-3,0
